NORAD_CAT_ID,OBJECT_NAME,OBJECT_TYPE,EPOCH,MEAN_MOTION,ECCENTRICITY,INCLINATION,RA_OF_ASC_NODE,ARG_OF_PERICENTER,MEAN_ANOMALY,BSTAR,MEAN_MOTION_DOT,MEAN_MOTION_DDOT,TLE_LINE0,TLE_LINE1,TLE_LINE2,SEMIMAJOR_AXIS,PERIOD,APOGEE,PERIGEE,DECAYED
49749,STARLINK-3250,PAYLOAD,2022-08-04 11:58:17,15.0883143,0.000163,53.2167,284.2655,52.793,307.3211,2.8576e-06,-2.43e-06,0.0,0 STARLINK-3250,1 49749U 21115AB  22216.49881749 -.00000243  00000-0  28576-5 0  9999,2 49749  53.2167 284.2655 0001630  52.7930 307.3211 15.08831430 38390,6917.907,95.438,540.899,538.644,0.0
49749,STARLINK-3250,PAYLOAD,2022-08-04 16:44:27,15.08832106,0.0001644,53.2166,283.3733,52.52,307.5942,6.6691e-06,-1.82e-06,0.0,0 STARLINK-3250,1 49749U 21115AB  22216.69753789 -.00000182  00000-0  66691-5 0  9995,2 49749  53.2166 283.3733 0001644  52.5200 307.5942 15.08832106 37314,6917.905,95.438,540.907,538.632,0.0
49749,STARLINK-3250,PAYLOAD,2022-08-05 11:49:04,15.08838225,0.0001672,53.2162,279.8049,52.5232,307.5912,1.3201e-05,-7.8e-07,0.0,0 STARLINK-3250,1 49749U 21115AB  22217.49241637 -.00000078  00000-0  13201-4 0  9990,2 49749  53.2162 279.8049 0001672  52.5232 307.5912 15.08838225 38547,6917.886,95.438,540.907,538.594,0.0
49749,STARLINK-3250,PAYLOAD,2022-08-05 13:24:27,15.08839042,0.0001661,53.2163,279.5076,53.1765,306.9379,1.9011e-05,1.5e-07,0.0,0 STARLINK-3250,1 49749U 21115AB  22217.55865568  .00000015  00000-0  19011-4 0  9997,2 49749  53.2163 279.5076 0001661  53.1765 306.9379 15.08839042 37447,6917.883,95.438,540.897,538.599,0.0
49749,STARLINK-3250,PAYLOAD,2022-08-06 13:15:14,15.0884029,0.000171,53.2161,275.0469,55.0085,305.1067,0.00013078,1.794e-05,0.0,0 STARLINK-3250,1 49749U 21115AB  22218.55225259  .00001794  00000-0  13078-3 0  9996,2 49749  53.2161 275.0469 0001710  55.0085 305.1067 15.08840290 38705,6917.88,95.438,540.927,538.562,0.0
49749,STARLINK-3250,PAYLOAD,2022-08-07 09:55:16,15.08834834,0.0001772,53.2163,271.1815,56.139,303.977,-2.3863e-05,-6.68e-06,0.0,0 STARLINK-3250,1 49749U 21115AB  22219.41338170 -.00000668  00000-0 -23863-4 0  9994,2 49749  53.2163 271.1815 0001772  56.1390 303.9770 15.08834834 38836,6917.896,95.438,540.987,538.535,0.0
49749,STARLINK-3250,PAYLOAD,2022-08-07 13:06:02,15.08834786,0.000172,53.2163,270.5867,59.6648,300.4514,2.1058e-05,4.7e-07,0.0,0 STARLINK-3250,1 49749U 21115AB  22219.54586077  .00000047  00000-0  21058-4 0  9992,2 49749  53.2163 270.5867 0001720  59.6648 300.4514 15.08834786 37746,6917.896,95.438,540.951,538.571,0.0
49749,STARLINK-3250,PAYLOAD,2022-08-08 09:46:02,15.08846151,0.0001741,53.216,266.7206,56.6653,303.4505,6.0092e-05,6.69e-06,0.0,0 STARLINK-3250,1 49749U 21115AB  22220.40697316  .00000669  00000-0  60092-4 0  9999,2 49749  53.2160 266.7206 0001741  56.6653 303.4505 15.08846151 38982,6917.862,95.437,540.931,538.522,0.0
49749,STARLINK-3250,PAYLOAD,2022-08-08 12:56:48,15.0884753,0.0001792,53.216,266.1263,56.0649,304.0513,7.8972e-05,9.69e-06,0.0,0 STARLINK-3250,1 49749U 21115AB  22220.53945153  .00000969  00000-0  78972-4 0  9997,2 49749  53.2160 266.1263 0001792  56.0649 304.0513 15.08847530 37891,6917.857,95.437,540.962,538.483,0.0
49749,STARLINK-3250,PAYLOAD,2022-08-09 12:47:35,15.08845362,0.0001711,53.2161,261.6649,54.0289,306.0861,0.00014579,2.033e-05,0.0,0 STARLINK-3250,1 49749U 21115AB  22221.53304760  .00002033  00000-0  14579-3 0  9997,2 49749  53.2161 261.6649 0001711  54.0289 306.0861 15.08845362 38046,6917.864,95.437,540.913,538.545,0.0
49749,STARLINK-3250,PAYLOAD,2022-08-09 14:22:59,15.08837085,0.0001722,53.2159,261.3678,53.949,306.1662,8.3177e-05,1.036e-05,0.0,0 STARLINK-3250,1 49749U 21115AB  22221.59929497  .00001036  00000-0  83177-4 0  9996,2 49749  53.2159 261.3678 0001722  53.9490 306.1662 15.08837085 39163,6917.889,95.438,540.946,538.563,0.0
49749,STARLINK-3250,PAYLOAD,2022-08-10 03:06:04,15.08832117,0.0001766,53.216,258.9887,53.7701,306.3454,-2.2973e-05,-6.54e-06,0.0,0 STARLINK-3250,1 49749U 21115AB  22222.12922241 -.00000654  00000-0 -22973-4 0  9990,2 49749  53.2160 258.9887 0001766  53.7701 306.3454 15.08832117 39241,6917.904,95.438,540.991,538.548,0.0
49749,STARLINK-3250,PAYLOAD,2022-08-10 11:03:00,15.08827383,0.0001742,53.2164,257.5015,52.0844,308.0305,-5.9855e-05,-1.24e-05,0.0,0 STARLINK-3250,1 49749U 21115AB  22222.46042745 -.00001240  00000-0 -59855-4 0  9990,2 49749  53.2164 257.5015 0001742  52.0844 308.0305 15.08827383 38182,6917.919,95.438,540.989,538.579,0.0
49749,STARLINK-3250,PAYLOAD,2022-08-11 04:32:15,15.08829275,0.0001627,53.2161,254.2305,53.7823,306.3319,-7.8891e-06,-4.14e-06,0.0,0 STARLINK-3250,1 49749U 21115AB  22223.18906630 -.00000414  00000-0 -78891-5 0  9996,2 49749  53.2161 254.2305 0001627  53.7823 306.3319 15.08829275 39406,6917.913,95.438,540.904,538.653,0.0
49749,STARLINK-3250,PAYLOAD,2022-08-11 10:53:47,15.08830519,0.0001707,53.2162,253.0414,51.3724,308.7421,-5.0103e-07,-2.96e-06,0.0,0 STARLINK-3250,1 49749U 21115AB  22223.45402731 -.00000296  00000-0 -50103-6 0  9994,2 49749  53.2162 253.0414 0001707  51.3724 308.7421 15.08830519 38332,6917.909,95.438,540.955,538.593,0.0
49749,STARLINK-3250,PAYLOAD,2022-08-12 09:09:11,15.08832505,0.0001664,53.2157,248.8778,47.06,313.0531,0.00012126,1.642e-05,0.0,0 STARLINK-3250,1 49749U 21115AB  22224.38138837  .00001642  00000-0  12126-3 0  9994,2 49749  53.2157 248.8778 0001664  47.0600 313.0531 15.08832505 39584,6917.903,95.438,540.919,538.617,0.0
49749,STARLINK-3250,PAYLOAD,2022-08-12 18:41:30,15.08835187,0.0001707,53.2158,247.0937,46.9312,313.1823,0.00013406,1.846e-05,0.0,0 STARLINK-3250,1 49749U 21115AB  22224.77882843  .00001846  00000-0  13406-3 0  9998,2 49749  53.2158 247.0937 0001707  46.9312 313.1823 15.08835187 38537,6917.895,95.438,540.941,538.579,0.0
49749,STARLINK-3250,PAYLOAD,2022-08-13 08:59:58,15.08841016,0.0001745,53.2157,244.4172,48.1437,311.9704,0.00012961,1.775e-05,0.0,0 STARLINK-3250,1 49749U 21115AB  22225.37498656  .00001775  00000-0  12961-3 0  9996,2 49749  53.2157 244.4172 0001745  48.1437 311.9704 15.08841016 38624,6917.877,95.437,540.949,538.535,0.0
49749,STARLINK-3250,PAYLOAD,2022-08-13 13:46:08,15.08842997,0.0001746,53.2157,243.5252,48.3777,311.7364,0.00012865,1.76e-05,0.0,0 STARLINK-3250,1 49749U 21115AB  22225.57370524  .00001760  00000-0  12865-3 0  9998,2 49749  53.2157 243.5252 0001746  48.3777 311.7364 15.08842997 38655,6917.871,95.437,540.944,538.528,0.0
49749,STARLINK-3250,PAYLOAD,2022-08-14 04:04:37,15.08834169,0.0001758,53.2154,240.8488,50.0413,310.0733,1.2964e-05,-8.2e-07,0.0,0 STARLINK-3250,1 49749U 21115AB  22226.16987578 -.00000082  00000-0  12964-4 0  9995,2 49749  53.2154 240.8488 0001758  50.0413 310.0733 15.08834169 39850,6917.898,95.438,540.979,538.547,0.0
49749,STARLINK-3250,PAYLOAD,2022-08-14 10:26:09,15.08833073,0.0001745,53.2155,239.6594,49.845,310.2695,-4.1726e-06,-3.54e-06,0.0,0 STARLINK-3250,1 49749U 21115AB  22226.43483742 -.00000354  00000-0 -41726-5 0  9991,2 49749  53.2155 239.6594 0001745  49.8450 310.2695 15.08833073 38781,6917.902,95.438,540.974,538.559,0.0
49749,STARLINK-3250,PAYLOAD,2022-08-15 10:16:56,15.08838005,0.0001781,53.2155,235.1989,51.7959,308.3194,2.9915e-06,-2.41e-06,0.0,0 STARLINK-3250,1 49749U 21115AB  22227.42843588 -.00000241  00000-0  29915-5 0  9999,2 49749  53.2155 235.1989 0001781  51.7959 308.3194 15.08838005 38935,6917.886,95.438,540.984,538.519,0.0
49749,STARLINK-3250,PAYLOAD,2022-08-16 10:07:43,15.0883901,0.0001829,53.2153,230.7384,47.792,312.3227,0.00011349,1.519e-05,0.0,0 STARLINK-3250,1 49749U 21115AB  22228.42203477  .00001519  00000-0  11349-3 0  9995,2 49749  53.2153 230.7384 0001829  47.7920 312.3227 15.08839010 39085,6917.883,95.438,541.014,538.483,0.0
49749,STARLINK-3250,PAYLOAD,2022-08-17 05:12:21,15.08846246,0.0001881,53.2154,227.17,48.4885,311.6269,0.0001246,1.696e-05,0.0,0 STARLINK-3250,1 49749U 21115AB  22229.21691011  .00001696  00000-0  12460-3 0  9999,2 49749  53.2154 227.1700 0001881  48.4885 311.6269 15.08846246 40319,6917.861,95.437,541.028,538.425,0.0
49749,STARLINK-3250,PAYLOAD,2022-08-17 06:47:44,15.08846971,0.0001876,53.2155,226.8726,49.3056,310.8099,0.00012977,1.778e-05,0.0,0 STARLINK-3250,1 49749U 21115AB  22229.28314942  .00001778  00000-0  12977-3 0  9995,2 49749  53.2155 226.8726 0001876  49.3056 310.8099 15.08846971 39212,6917.859,95.437,541.022,538.426,0.0
49749,STARLINK-3250,PAYLOAD,2022-08-18 06:38:31,15.08841291,0.0001894,53.2152,222.4118,47.8289,312.2864,1.5886e-05,-3.5e-07,0.0,0 STARLINK-3250,1 49749U 21115AB  22230.27675302 -.00000035  00000-0  15886-4 0  9995,2 49749  53.2152 222.4118 0001894  47.8289 312.2864 15.08841291 40473,6917.876,95.437,541.052,538.431,0.0
49749,STARLINK-3250,PAYLOAD,2022-08-18 16:10:50,15.08843226,0.0001911,53.2152,220.6275,47.9271,312.1884,2.6713e-05,1.37e-06,0.0,0 STARLINK-3250,1 49749U 21115AB  22230.67419041  .00000137  00000-0  26713-4 0  9998,2 49749  53.2152 220.6275 0001911  47.9271 312.1884 15.08843226 39423,6917.871,95.437,541.058,538.414,0.0
49749,STARLINK-3250,PAYLOAD,2022-08-19 06:29:17,15.0884841,0.000196,53.215,217.9505,46.6417,313.4738,2.3306e-05,8.3e-07,0.0,0 STARLINK-3250,1 49749U 21115AB  22231.27034475  .00000083  00000-0  23306-4 0  9994,2 49749  53.2150 217.9505 0001960  46.6417 313.4738 15.08848410 40624,6917.855,95.437,541.076,538.364,0.0
49749,STARLINK-3250,PAYLOAD,2022-08-20 06:20:05,15.08834363,0.0002001,53.2155,213.4903,47.4208,312.6952,2.5398e-05,1.16e-06,0.0,0 STARLINK-3250,1 49749U 21115AB  22232.26395241  .00000116  00000-0  25398-4 0  9995,2 49749  53.2155 213.4903 0002001  47.4208 312.6952 15.08834363 40773,6917.898,95.438,541.147,538.378,0.0
49749,STARLINK-3250,PAYLOAD,2022-08-20 11:06:14,15.0883464,0.0002,53.2157,212.5986,48.9089,311.2075,2.4765e-05,1.06e-06,0.0,0 STARLINK-3250,1 49749U 21115AB  22232.46267261  .00000106  00000-0  24765-4 0  9993,2 49749  53.2157 212.5986 0002000  48.9089 311.2075 15.08834640 39696,6917.897,95.438,541.145,538.378,0.0
